SKYTERRA 1              
1 37218U 10061A   20140.55257075 -.00000116  00000-0  00000-0 0  9991
2 37218   2.1696 358.8348 0002077  43.3425 293.1508  1.00273492 34949
ZHONGXING-20A           
1 37234U 10064A   20140.50799029 -.00000344  00000-0  00000+0 0  9999
2 37234   0.7959  97.4240 0004344 338.8945 110.6028  1.00273907 34770
HYLAS 1                 
1 37237U 10065A   20140.53527627  .00000038  00000-0  00000-0 0  9999
2 37237   0.0644  90.5543 0010845 150.4912  21.3782  0.99700975 34729
INTELSAT 17 (IS-17)     
1 37238U 10065B   20140.49595174  .00000004  00000-0  00000-0 0  9990
2 37238   0.0166 273.6376 0002322 141.4708  67.0381  1.00272189 31184
BEIDOU 7                
1 37256U 10068A   20140.48728778 -.00000227  00000-0  10000-3 0  9992
2 37256  51.5300 298.6733 0074668 209.3635  24.4559  1.00267025 34544
EUTELSAT KA-SAT 9A      
1 37258U 10069A   20140.34102074  .00000067  00000-0  00000+0 0  9991
2 37258   0.0258 323.8117 0006057 158.6318 246.7947  1.00271882 34563
HISPASAT 30W-5          
1 37264U 10070A   20140.40505190 -.00000211  00000-0  00000+0 0  9995
2 37264   0.0173  99.2298 0004930 349.5101 264.6185  1.00272001 34409
KOREASAT 6              
1 37265U 10070B   20140.36239353 -.00000357  00000-0  00000+0 0  9997
2 37265   0.0193  57.3944 0001240 359.4922  67.0726  1.00269075 34422
BEIDOU 8                
1 37384U 11013A   20140.40037359 -.00000217  00000-0  10000-3 0  9994
2 37384  59.2327  61.8932 0045992 206.8473 232.5917  1.00266513 33428
INTELSAT NEW DAWN       
1 37392U 11016A   20140.48932182  .00000161  00000-0  00000-0 0  9995
2 37392   0.0244 179.5522 0000175 315.2644 311.7629  1.00274790 31042
YAHSAT 1A               
1 37393U 11016B   20140.49324743  .00000106  00000-0  00000-0 0  9994
2 37393   0.0185 301.6495 0002808 129.3539  36.6806  1.00269883 20153
SBIRS GEO-1 (USA 230)   
1 37481U 11019A   20140.49603899 -.00000006  00000-0  00000-0 0  9997
2 37481   2.0914 342.2890 0002105  79.6433  60.4631  1.00272208 33175
TELSTAR 14R             
1 37602U 11021A   20140.54198709 -.00000274  00000-0  00000-0 0  9997
2 37602   0.0342  48.4384 0002240  18.3331 303.0169  1.00272027 33567
GSAT-8                  
1 37605U 11022A   20140.49377084  .00000090  00000-0  00000-0 0  9995
2 37605   0.0494 116.4612 0003447 192.6712 161.2885  1.00271694 30966
ST-2                    
1 37606U 11022B   20140.50031354 -.00000206  00000-0  00000-0 0  9995
2 37606   0.0129 282.6022 0001940 191.7231  31.4174  1.00271128 33026
CHINASAT 10 (ZX 10)     
1 37677U 11026A   20140.58444875 -.00000347  00000-0  00000-0 0  9997
2 37677   0.0853 270.0485 0002687 228.8667  59.7216  1.00271516 32712
TIANLIAN 1-02           
1 37737U 11032A   20140.60393690 -.00000010  00000-0  00000-0 0  9999
2 37737   2.8607  74.2705 0010967  89.9956 101.8263  1.00272392 32468
GSAT-12                 
1 37746U 11034A   20140.59444521 -.00000159  00000-0  00000-0 0  9993
2 37746   0.0293 264.1951 0010534 187.0549  83.4896  1.00271806 21240
SES-3                   
1 37748U 11035A   20140.55081461 -.00000096  00000-0  00000-0 0  9992
2 37748   0.0206  17.3449 0002257  41.7441 273.8983  1.00272772 32355
KAZSAT-2                
1 37749U 11035B   20140.32340971 -.00000194  00000-0  00000-0 0  9991
2 37749   0.0265 267.4971 0000599 270.3648 262.5323  1.00273843 31122
BEIDOU 9                
1 37763U 11038A   20140.57067272 -.00000002  00000-0  10000-3 0  9999
2 37763  54.4251 185.6688 0072383 226.7961 123.9871  1.00256334 32388
ASTRA 1N                
1 37775U 11041A   20140.55838745  .00000126  00000-0  00000-0 0  9997
2 37775   0.0409   2.0696 0005394  54.6673  41.1874  1.00272840 22271
BSAT-3C (JCSAT-110R)    
1 37776U 11041B   20140.59118083 -.00000345  00000-0  00000-0 0  9992
2 37776   0.0257  75.0564 0000224 224.9581 260.4760  1.00269272 28231
PAKSAT-1R               
1 37779U 11042A   20140.17757878  .00000158  00000-0  00000+0 0  9991
2 37779   0.0108 254.3163 0004207 146.9105 297.9761  1.00272691 32012
CHINASAT 1A (ZX 1A)     
1 37804U 11047A   20140.55762244 -.00000332  00000-0  00000-0 0  9996
2 37804   0.0433  94.5605 0002206 314.8502 158.8653  1.00271241 31824
COSMOS 2473             
1 37806U 11048A   20140.23978149 -.00000103  00000-0  00000-0 0  9993
2 37806   0.0743 110.7506 0003889 333.6949 225.7265  1.00271077 31801
SES-2                   
1 37809U 11049A   20140.53718913 -.00000190  00000-0  00000-0 0  9997
2 37809   0.0108 319.3693 0002336  95.1413 289.5501  1.00272550 31757
ARABSAT-5C              
1 37810U 11049B   20140.55856192  .00000129  00000-0  00000-0 0  9994
2 37810   0.0634 359.4989 0003344  96.6698   2.6302  1.00272741 31808
EUTELSAT 7 WEST A       
1 37816U 11051A   20140.40950094 -.00000055  00000-0  00000-0 0  9992
2 37816   0.0661 349.4312 0006985 160.5039 227.7258  1.00271473 31639
QUETZSAT 1              
1 37826U 11054A   20140.53919556 -.00000236  00000-0  00000-0 0  9999
2 37826   0.0547  90.6189 0002692 339.0081 285.1447  1.00271119 27631
INTELSAT 18 (IS-18)     
1 37834U 11056A   20140.61074954  .00000059  00000-0  00000-0 0  9995
2 37834   0.0216 303.5004 0003233 133.7382 200.3555  1.00271007 31674
EUTELSAT 16A            
1 37836U 11057A   20140.55777681  .00000110  00000-0  00000-0 0  9996
2 37836   0.0685 359.4449 0005330  71.8864  23.1641  1.00273328 23739
VIASAT-1                
1 37843U 11059A   20140.57122690 -.00000018  00000-0  00000-0 0  9990
2 37843   0.0189 301.9857 0002323 113.4292 272.8232  1.00271699 25064
ASIASAT 7               
1 37933U 11069A   20140.58667375 -.00000328  00000-0  00000-0 0  9990
2 37933   0.0204 273.2739 0001415 133.4347 147.6974  1.00269567 22606
BEIDOU 10               
1 37948U 11073A   20140.55417340 -.00000163  00000-0  10000-3 0  9994
2 37948  51.6221 298.2594 0064119 211.0454  22.4004  1.00262144 31148
LUCH 5A                 
1 37951U 11074B   20140.60121424 -.00000037  00000-0  00000-0 0  9996
2 37951   3.1992 115.7689 0005120 320.5685 184.7886  1.00274525 30938
NIGCOMSAT 1R            
1 38014U 11077A   20140.40188118  .00000150  00000-0  00000+0 0  9995
2 38014   0.0115 250.1230 0001557 188.3817 346.2229  1.00275583 30778
FENGYUN 2F              
1 38049U 12002A   20140.57696869 -.00000351  00000-0  00000-0 0  9992
2 38049   1.9985  83.4113 0003056  57.3442  56.9791  1.00267695 30632
WGS F4 (USA 233)        
1 38070U 12003A   20140.43591314 -.00000209  00000-0  00000+0 0  9992
2 38070   0.0157 317.9733 0000238 257.7040 267.2157  1.00268649 30463
SES-4                   
1 38087U 12007A   20140.40653492 -.00000163  00000-0  00000-0 0  9997
2 38087   0.0177 332.7868 0002571  93.0873 296.0047  1.00271213 29988
BEIDOU 11               
1 38091U 12008A   20140.56632591  .00000062  00000-0  00000-0 0  9994
2 38091   1.4268  65.7500 0005545 290.7664 143.7507  1.00274523 30228
MUOS-1                  
1 38093U 12009A   20140.55257142 -.00000122  00000-0  00000-0 0  9999
2 38093   2.5362   6.6228 0057062   3.4728 326.5255  1.00271493 30188
INTELSAT 22 (IS-22)     
1 38098U 12011A   20140.49717304 -.00000054  00000-0  00000-0 0  9995
2 38098   0.0070  25.2094 0002649  50.9152  52.5810  1.00272139 29571
APSTAR 7                
1 38107U 12013A   20140.59702115 -.00000096  00000-0  00000-0 0  9999
2 38107   0.0160  18.4906 0002918  56.8678  93.7689  1.00271530 29918
YAHSAT 1B               
1 38245U 12016A   20140.27271557  .00000131  00000-0  00000-0 0  9990
2 38245   0.0166 299.7267 0002923 133.0186 310.4277  1.00271091 23344
AEHF-2 (USA 235)        
1 38254U 12019A   20140.54111473 -.00000269  00000-0  00000-0 0  9996
2 38254   1.9707  45.7255 0006792  28.7484 290.4614  1.00273435 28598
JCSAT-13                
1 38331U 12023A   20140.50755411 -.00000351  00000-0  00000-0 0  9991
2 38331   0.0107 286.2552 0002138 169.5886  88.5068  1.00270313 29277
VINASAT-2               
1 38332U 12023B   20140.43732919 -.00000324  00000-0  00000-0 0  9992
2 38332   0.0124 311.1812 0002226 129.4257  86.2423  1.00271283 24417
NIMIQ 6                 
1 38342U 12026A   20140.53640399 -.00000167  00000-0  00000-0 0  9992
2 38342   0.0228  58.6835 0002687   1.2282 279.7308  1.00270302 28165
CHINASAT 2A (ZX 2A)     
1 38352U 12028A   20140.61559851 -.00000287  00000-0  00000-0 0  9999
2 38352   0.0119 281.9794 0001665 124.1736 151.4500  1.00272954 29126
INTELSAT 19 (IS-19)     
1 38356U 12030A   20140.60000709 -.00000050  00000-0  00000-0 0  9996
2 38356   0.0141 294.6627 0002935 130.4837 194.5831  1.00273271 28200
ECHOSTAR 17             
1 38551U 12035A   20140.57702691 -.00000069  00000-0  00000-0 0  9993
2 38551   0.0187 295.4032 0001886 120.9253 281.9943  1.00269450 28812
METEOSAT-10 (MSG-3)     
1 38552U 12035B   20140.33868741  .00000067  00000-0  00000-0 0  9994
2 38552   0.9969  11.2887 0000592  58.0112 299.3530  1.00277124 28621
SES-5                   
1 38652U 12036A   20140.55559590  .00000040  00000-0  00000-0 0  9990
2 38652   0.0527 100.7996 0001807 322.3882  19.4904  1.00273835 22231
TIANLIAN 1-03           
1 38730U 12040A   20140.55864916  .00000131  00000-0  00000-0 0  9994
2 38730   0.1587 113.1875 0006141 286.2206  59.7574  1.00270781 28731
INTELSAT 20 (IS-20)     
1 38740U 12043A   20140.49647517 -.00000019  00000-0  00000-0 0  9993
2 38740   0.0058 302.6351 0001415 257.6582 284.5599  1.00270915 28493
HYLAS 2                 
1 38741U 12043B   20140.56074282  .00000160  00000-0  00000-0 0  9991
2 38741   0.0166 309.8774 0001432 103.2577  57.4371  1.00274030 28511
INTELSAT 21 (IS-21)     
1 38749U 12045A   20140.47126397 -.00000279  00000-0  00000-0 0  9998
2 38749   0.0155 304.1351 0001917 119.1314 285.9835  1.00268673 28282
ASTRA 2F                
1 38778U 12051A   20140.56021941  .00000156  00000-0  00000-0 0  9999
2 38778   0.0505 211.2378 0000706 345.4240 270.9122  1.00274171 18908
